[{"OBJECT_NAME":"STARLINK-2270","OBJECT_ID":"2021-024Z","EPOCH":"2026-03-10T00:00:02.999808","MEAN_MOTION":15.15503403,"ECCENTRICITY":0.00016675,"INCLINATION":53.0914,"RA_OF_ASC_NODE":240.2006,"ARG_OF_PERICENTER":79.2002,"MEAN_ANOMALY":45.1048,"EPHEMERIS_TYPE":0,"CLASSIFICATION_TYPE":"U","NORAD_CAT_ID":48000,"ELEMENT_SET_NO":999,"REV_AT_EPOCH":568,"BSTAR":0.0047847248,"MEAN_MOTION_DOT":0.00092576,"MEAN_MOTION_DDOT":0},{"OBJECT_NAME":"FOSSASAT-2E24","OBJECT_ID":"2025-276DV","EPOCH":"2026-03-09T18:37:38.318016","MEAN_MOTION":15.18161624,"ECCENTRICITY":0.000615,"INCLINATION":97.4247,"RA_OF_ASC_NODE":143.9285,"ARG_OF_PERICENTER":111.9769,"MEAN_ANOMALY":248.2119,"EPHEMERIS_TYPE":0,"CLASSIFICATION_TYPE":"U","NORAD_CAT_ID":66780,"ELEMENT_SET_NO":999,"REV_AT_EPOCH":1532,"BSTAR":0.00023488537,"MEAN_MOTION_DOT":4.733e-5,"MEAN_MOTION_DDOT":0}]
